Skip Page Navigation
NASA Logo - Jet Propulsion Laboratory				+ View the NASA Portal
+ Center for Near-Earth Object Studies			
JPL Home	Earth	Solar System	Stars & Galaxies	Technology

JPL Solar System Dynamics
BODIES		ORBITS		EPHEMERIDES		TOOLS		PHYSICAL DATA		DISCOVERY		FAQ		SITE MAP

IMPORTANT: The SSD Announcement email list is now available. Major changes are coming in the near future, including possible hostname and/or URL changes. To be notified of such changes, subscribe to this email list.

Please visit this page for more details.


Don't show this message again
HORIZONS Web-Interface
This tool provides a web-based limited interface to JPL's HORIZONS system which can be used to generate ephemerides for solar-system bodies. Full access to HORIZONS features is available via the primary telnet interface. HORIZONS system news shows recent changes and improvements. A web-interface tutorial is available to assist new users.
Current Settings
Ephemeris Type [change] : 	ELEMENTS
Target Body [change] : 	136108 Haumea (2003 EL61)
Center [change] : 	Solar System Barycenter (SSB) [500@0]
Time Span [change] : 	Start=JD 2458850.0, Stop=JD 2464329.0, Intervals=500
Table Settings [change] : 	CSV format=YES
Display/Output [change] : 	default (formatted HTML)
Object Data Page
JPL/HORIZONS              136108 Haumea (2003 EL61)        2020-May-15 19:46:48
Rec #:  136108 (+COV) Soln.date: 2020-Feb-24_07:39:00   # obs: 2279 (1955-2020)
 
IAU76/J2000 helio. ecliptic osc. elements (au, days, deg., period=Julian yrs):
 
  EPOCH=  2456792.5 ! 2014-May-15.00 (TDB)         Residual RMS= .23018
   EC= .1924985983522505   QR= 34.85532058964302   TP= 2500495.6810239106
   OM= 121.7879649250491   W=  240.4209081829812   IN= 28.19134052255775
   A= 43.1644087781382     MA= 208.110263787899    ADIST= 51.47349696663338
   PER= 283.59392          N= .003475485           ANGMOM= .110903415
   DAN= 45.92921           DDN= 37.95807           L= 359.0068502
   B= -24.2582308          MOID= 33.94240189       TP= 2134-Jan-09.1810239106
 
Asteroid physical parameters (km, seconds, rotational period in hours):
   GM= n.a.                RAD= n.a.               ROTPER= 3.9154
   H= .200                 G= .150                 B-V= n.a.
                           ALBEDO= n.a.            STYP= n.a.
 
ASTEROID comments: 
1: soln ref.= JPL#93, OCC=2
2: source=ORB
Results
*******************************************************************************
Ephemeris / WWW_USER Fri May 15 19:46:49 2020 Pasadena, USA      / Horizons    
*******************************************************************************
Target body name: 136108 Haumea (2003 EL61)       {source: JPL#93}
Center body name: Solar System Barycenter (0)     {source: DE431}
Center-site name: BODY CENTER
*******************************************************************************
Start time      : A.D. 2020-Jan-01 12:00:00.0000 TDB
Stop  time      : A.D. 2035-Jan-01 12:00:00.0000 TDB
Step-size       : 500 steps
*******************************************************************************
Center geodetic : 0.00000000,0.00000000,0.0000000 {E-lon(deg),Lat(deg),Alt(km)}
Center cylindric: 0.00000000,0.00000000,0.0000000 {E-lon(deg),Dxy(km),Dz(km)}
Center radii    : (undefined)                                                  
Keplerian GM    : 2.9630927492415936E-04 au^3/d^2
Small perturbers: Yes                             {source: SB431-N16}
Output units    : AU-D, deg, Julian Day Number (Tp)                            
Output type     : GEOMETRIC osculating elements
Output format   : 10
Reference frame : ICRF/J2000.0                                                 
Coordinate systm: Ecliptic and Mean Equinox of Reference Epoch                 
*******************************************************************************
Initial IAU76/J2000 heliocentric ecliptic osculating elements (au, days, deg.):
  EPOCH=  2456792.5 ! 2014-May-15.00 (TDB)         Residual RMS= .23018        
   EC= .1924985983522505   QR= 34.85532058964302   TP= 2500495.6810239106      
   OM= 121.7879649250491   W=  240.4209081829812   IN= 28.19134052255775       
  Equivalent ICRF heliocentric equatorial cartesian coordinates (au, au/d):
   X=-4.210600179793989E+01  Y=-2.381790028715109E+01  Z= 1.542004718340013E+01
  VX= 9.915998812275689E-04 VY=-1.829717856969054E-03 VZ=-6.851843891041952E-04
Asteroid physical parameters (km, seconds, rotational period in hours):        
   GM= n.a.                RAD= n.a.               ROTPER= 3.9154              
   H= .200                 G= .150                 B-V= n.a.                   
                           ALBEDO= n.a.            STYP= n.a.                  
*******************************************************************************
            JDTDB,            Calendar Date (TDB),                     EC,                     QR,                     IN,                     OM,                      W,                     Tp,                      N,                     MA,                     TA,                      A,                     AD,                     PR,
**************************************************************************************************************************************************************************************************************************************************************************************************************************************************
$$SOE
2460690.944000000, A.D. 2025-Jan-15 10:39:21.6000,  1.950278636387920E-01,  3.469613759279532E+01,  2.820481971100978E+01,  1.219464414723611E+02,  2.399471208078048E+02,  2.500198168330006E+06,  3.485337426211600E-03,  2.223039924368928E+02,  2.096702577592402E+02,  4.310228394939926E+01,  5.150843030600318E+01,  1.032898557518728E+05,
2460701.902000000, A.D. 2025-Jan-26 09:38:52.8000,  1.950278778907406E-01,  3.469613687980706E+01,  2.820481970598838E+01,  1.219464398212020E+02,  2.399471191666359E+02,  2.500198166644461E+06,  3.485337441083203E-03,  2.223421900517313E+02,  2.096981854035404E+02,  4.310228382679037E+01,  5.150843077377368E+01,  1.032898553111449E+05,
2460712.860000000, A.D. 2025-Feb-06 08:38:24.0000,  1.950278919958879E-01,  3.469613617458922E+01,  2.820481970136811E+01,  1.219464381774274E+02,  2.399471175496784E+02,  2.500198164976497E+06,  3.485337455737379E-03,  2.223803876142001E+02,  2.097261161838149E+02,  4.310228370597405E+01,  5.150843123735888E+01,  1.032898548768605E+05,
2460723.818000000, A.D. 2025-Feb-17 07:37:55.2000,  1.950279059620074E-01,  3.469613547651094E+01,  2.820481969714569E+01,  1.219464365410562E+02,  2.399471159585647E+02,  2.500198163326095E+06,  3.485337470218708E-03,  2.224185851226092E+02,  2.097540501016622E+02,  4.310228358658276E+01,  5.150843169665460E+01,  1.032898544476985E+05,
2460734.776000000, A.D. 2025-Feb-28 06:37:26.4000,  1.950279197973214E-01,  3.469613478491430E+01,  2.820481969331773E+01,  1.219464349120913E+02,  2.399471143949089E+02,  2.500198161693195E+06,  3.485337484572916E-03,  2.224567825753488E+02,  2.097819871587136E+02,  4.310228346823954E+01,  5.150843215156478E+01,  1.032898540223038E+05,
2460745.734000000, A.D. 2025-Mar-11 05:36:57.6000,  1.950279335095956E-01,  3.469613409917287E+01,  2.820481968988090E+01,  1.219464332905419E+02,  2.399471128602981E+02,  2.500198160077762E+06,  3.485337498843966E-03,  2.224949799708071E+02,  2.098099273566231E+02,  4.310228335058190E+01,  5.150843260199093E+01,  1.032898535993735E+05,
2460756.692000000, A.D. 2025-Mar-22 04:36:28.8000,  1.950279471067254E-01,  3.469613341865771E+01,  2.820481968683179E+01,  1.219464316764006E+02,  2.399471113562473E+02,  2.500198158479727E+06,  3.485337513075344E-03,  2.225331773075036E+02,  2.098378706971324E+02,  4.310228323325135E+01,  5.150843304784498E+01,  1.032898531776190E+05,
2460767.650000000, A.D. 2025-Apr-02 03:36:00.0000,  1.950279605965527E-01,  3.469613274274631E+01,  2.820481968416702E+01,  1.219464300696547E+02,  2.399471098842366E+02,  2.500198156899015E+06,  3.485337527309919E-03,  2.225713745840094E+02,  2.098658171820231E+02,  4.310228311589444E+01,  5.150843348904256E+01,  1.032898527557697E+05,
2460778.608000000, A.D. 2025-Apr-13 02:35:31.2000,  1.950279739871760E-01,  3.469613207079073E+01,  2.820481968188320E+01,  1.219464284703020E+02,  2.399471084458604E+02,  2.500198155335569E+06,  3.485337541592729E-03,  2.226095717987492E+02,  2.098937668129547E+02,  4.310228299813985E+01,  5.150843392548896E+01,  1.032898523324909E+05,
2460789.566000000, A.D. 2025-Apr-24 01:35:02.4000,  1.950279872865192E-01,  3.469613140216335E+01,  2.820481967997695E+01,  1.219464268783254E+02,  2.399471070425996E+02,  2.500198153789307E+06,  3.485337555966879E-03,  2.226477689503103E+02,  2.099217195917140E+02,  4.310228287963222E+01,  5.150843435710109E+01,  1.032898519065053E+05,
2460800.524000000, A.D. 2025-May-05 00:34:33.6000,  1.950280005034594E-01,  3.469613073616983E+01,  2.820481967844489E+01,  1.219464252936926E+02,  2.399471056760139E+02,  2.500198152260109E+06,  3.485337570479336E-03,  2.226859660372635E+02,  2.099496755200234E+02,  4.310228275998430E+01,  5.150843478379876E+01,  1.032898514764208E+05,
2460811.482000000, A.D. 2025-May-15 23:34:04.8000,  1.950280136466191E-01,  3.469613007213340E+01,  2.820481967728363E+01,  1.219464237163751E+02,  2.399471043476470E+02,  2.500198150747866E+06,  3.485337585176079E-03,  2.227241630581816E+02,  2.099776345996188E+02,  4.310228263881705E+01,  5.150843520550070E+01,  1.032898510408749E+05,
2460822.440000000, A.D. 2025-May-26 22:33:36.0000,  1.950280267249852E-01,  3.469612940936813E+01,  2.820481967648983E+01,  1.219464221463033E+02,  2.399471030588743E+02,  2.500198149252393E+06,  3.485337600102097E-03,  2.227623600119455E+02,  2.100055968324413E+02,  4.310228251575954E+01,  5.150843562215094E+01,  1.032898505985344E+05,
2460833.398000000, A.D. 2025-Jun-06 21:33:07.2000,  1.950280397478577E-01,  3.469612874716280E+01,  2.820481967606015E+01,  1.219464205834094E+02,  2.399471018111389E+02,  2.500198147773505E+06,  3.485337615304154E-03,  2.228005568973684E+02,  2.100335622203639E+02,  4.310228239042623E+01,  5.150843603368966E+01,  1.032898501480133E+05,
